CHUANGXIN 1-02 (CX-1-02)
1 33434U 08056B   26133.94580708 -.00000086  00000+0 -16076-4 0  9991
2 33434  98.6164 160.5506 0013151 238.5612 121.4285 14.30145311913722
STARS (KUKAI)           
1 33498U 09002G   26133.42942227  .00001726  00000+0  16151-3 0  9997
2 33498  98.1531  79.3312 0007065 289.6200  70.4257 14.95501414933280
KKS-1 (KISEKI)          
1 33499U 09002H   26133.91519463  .00000788  00000+0  10374-3 0  9992
2 33499  98.1195  55.8166 0008998  48.5196 311.6788 14.83030819931117
UK-DMC 2                
1 35683U 09041C   26133.92313926  .00000050  00000+0  14498-4 0  9993
2 35683  97.8777 269.7383 0001662  79.5160 280.6237 14.75970449901517
OCEANSAT-2              
1 35931U 09051A   26133.95774256  .00000095  00000+0  90377-4 0  9999
2 35931  98.2299 124.2295 0015096 338.1899  21.8623 13.99648585874547
SWISSCUBE               
1 35932U 09051B   26133.20649610  .00000617  00000+0  13181-3 0  9990
2 35932  98.4058  40.4838 0006177 333.2557  26.8324 14.62411070884049
BEESAT-1                
1 35933U 09051C   26133.54014512  .00000511  00000+0  11264-3 0  9998
2 35933  98.3987  40.5309 0005015 350.4158   9.6946 14.61661113884124
ITUPSAT1                
1 35935U 09051E   26133.98037321  .00000462  00000+0  10562-3 0  9996
2 35935  98.4072  40.2059 0007378 355.8503   4.2634 14.60386348883743
DMSP 5D-3 F18 (USA 210) 
1 35951U 09057A   26133.91432135  .00000217  00000+0  13541-3 0  9993
2 35951  98.9026 114.7617 0010979 354.9648   5.1413 14.14876676854743
PROBA-2                 
1 36037U 09059B   26133.50865488  .00000109  00000+0  35936-4 0  9990
2 36037  98.2449 317.3431 0013918  32.9341 327.2720 14.54847140876487
YAOGAN-7                
1 36110U 09069A   26133.62924432  .00000275  00000+0  45236-4 0  9999
2 36110  98.0114  19.7030 0025274 147.9210 212.3545 14.77973573884522
XIWANG-1 (HOPE-1)       
1 36122U 09072B   26133.89228071 -.00000051  00000+0 -16310-4 0  9996
2 36122 100.4001  88.2755 0007098 316.6497  43.4057 13.16438893788492
COSMOS 2463             
1 36519U 10017A   26133.46812564  .00000037  00000+0  24660-4 0  9995
2 36519  82.9588 275.2168 0035223 224.7985 195.8572 13.71663309803174
CARTOSAT-2B             
1 36795U 10035A   26133.89520056  .00000206  00000+0  35360-4 0  9997
2 36795  97.9983 184.6591 0010271 306.4426  53.5837 14.78615158854786
TISAT 1                 
1 36799U 10035E   26133.34624792  .00012278  00000+0  42092-3 0  9994
2 36799  98.0691  76.8483 0003487  52.2159 307.9396 15.30347916862373
YAOGAN-10               
1 36834U 10038A   26133.99829008  .00000546  00000+0  69977-4 0  9992
2 36834  97.9007 157.6748 0001540  92.4333 354.4908 14.85238555852138
SHIJIAN-6 04B (SJ-6 04B)
1 37180U 10051B   26133.98554126 -.00000328  00000+0 -21787-4 0  9994
2 37180  97.8731 139.0483 0012516  62.5313 297.7181 14.99259115850553
FENGYUN 3B              
1 37214U 10059A   26134.00539464 -.00000409  00000+0 -18829-3 0  9994
2 37214  98.9651 179.8701 0020969 284.5906 137.8469 14.14831178802590
COSMO-SKYMED 4          
1 37216U 10060A   26133.94587962  .00001003  00000+0  13249-3 0  9996
2 37216  97.8889 318.0425 0001412  83.0196 277.1178 14.82157436839495
O/OREOS (USA 219)       
1 37224U 10062C   26133.50396981  .00001158  00000+0  11558-3 0  9990
2 37224  71.9682 158.8926 0013025 138.7463 221.4694 14.93593949111462
RESOURCESAT-2           
1 37387U 11015A   26133.95343958  .00000050  00000+0  42809-4 0  9998
2 37387  98.7654 201.6287 0011139   2.5704 357.5529 14.21604452781313
YOUTHSAT                
1 37388U 11015B   26133.56589509  .00000115  00000+0  65846-4 0  9998
2 37388  98.3667 109.1859 0015764  84.0208  32.0869 14.25615075782706
APRIZESAT 6             
1 37793U 11044F   26133.26587323  .00000343  00000+0  56100-4 0  9995
2 37793  98.2385  43.0503 0042675 195.9977 281.9310 14.76866079791995
JUGNU                   
1 37839U 11058B   26133.21996584  .00000382  00000+0  60057-4 0  9998
2 37839  19.9589 160.8629 0018749  50.6973  19.1957 14.13766034754074
SRMSAT                  
1 37841U 11058D   26133.43846407  .00000365  00000+0  54247-4 0  9998
2 37841  19.9724 269.8009 0011671 181.4461 226.2347 14.11567807752901
