OBJECT_NAME,OBJECT_ID,EPOCH,MEAN_MOTION,ECCENTRICITY,INCLINATION,RA_OF_ASC_NODE,ARG_OF_PERICENTER,MEAN_ANOMALY,EPHEMERIS_TYPE,CLASSIFICATION_TYPE,NORAD_CAT_ID,ELEMENT_SET_NO,REV_AT_EPOCH,BSTAR,MEAN_MOTION_DOT,MEAN_MOTION_DDOT
CHUANGXIN 1-02 (CX-1-02),2008-056B,2026-05-13T22:41:57.731712,14.30145311,.00131516,98.6164,160.5506,238.5612,121.4285,0,U,33434,999,91372,-.16076361E-4,-.86E-6,0
STARS (KUKAI),2009-002G,2026-05-13T10:18:22.084128,14.95501414,.00070654,98.1531,79.3312,289.6200,70.4257,0,U,33498,999,93328,.16150722E-3,.1726E-4,0
KKS-1 (KISEKI),2009-002H,2026-05-13T21:57:52.816032,14.83030819,.00089989,98.1195,55.8166,48.5196,311.6788,0,U,33499,999,93111,.10373653E-3,.788E-5,0
UK-DMC 2,2009-041C,2026-05-13T22:09:19.232064,14.75970449,.00016627,97.8777,269.7383,79.5160,280.6237,0,U,35683,999,90151,.14497676E-4,.5E-6,0
OCEANSAT-2,2009-051A,2026-05-13T22:59:08.957184,13.99648585,.00150964,98.2299,124.2295,338.1899,21.8623,0,U,35931,999,87454,.90376525E-4,.95E-6,0
SWISSCUBE,2009-051B,2026-05-13T04:57:21.263040,14.62411070,.00061778,98.4058,40.4838,333.2557,26.8324,0,U,35932,999,88404,.13180617E-3,.617E-5,0
BEESAT-1,2009-051C,2026-05-13T12:57:48.538368,14.61661113,.00050152,98.3987,40.5309,350.4158,9.6946,0,U,35933,999,88412,.11263507E-3,.511E-5,0
ITUPSAT1,2009-051E,2026-05-13T23:31:44.245344,14.60386348,.00073789,98.4072,40.2059,355.8503,4.2634,0,U,35935,999,88374,.10562322E-3,.462E-5,0
DMSP 5D-3 F18 (USA 210),2009-057A,2026-05-13T21:56:37.364640,14.14876676,.00109791,98.9026,114.7617,354.9648,5.1413,0,U,35951,999,85474,.13541235E-3,.217E-5,0
PROBA-2,2009-059B,2026-05-13T12:12:27.781632,14.54847140,.00139188,98.2449,317.3431,32.9341,327.2720,0,U,36037,999,87648,.35936405E-4,.109E-5,0
YAOGAN-7,2009-069A,2026-05-13T15:06:06.709248,14.77973573,.00252747,98.0114,19.7030,147.9210,212.3545,0,U,36110,999,88452,.45236165E-4,.275E-5,0
XIWANG-1 (HOPE-1),2009-072B,2026-05-13T21:24:53.053344,13.16438893,.00070981,100.4001,88.2755,316.6497,43.4057,0,U,36122,999,78849,-.16310164E-4,-.51E-6,0
COSMOS 2463,2010-017A,2026-05-13T11:14:06.055296,13.71663309,.00352235,82.9588,275.2168,224.7985,195.8572,0,U,36519,999,80317,.24659869E-4,.37E-6,0
CARTOSAT-2B,2010-035A,2026-05-13T21:29:05.328384,14.78615158,.00102719,97.9983,184.6591,306.4426,53.5837,0,U,36795,999,85478,.3536031E-4,.206E-5,0
TISAT 1,2010-035E,2026-05-13T08:18:35.820288,15.30347916,.00034878,98.0691,76.8483,52.2159,307.9396,0,U,36799,999,86237,.42091934E-3,.12278E-3,0
YAOGAN-10,2010-038A,2026-05-13T23:57:32.262912,14.85238555,.00015406,97.9007,157.6748,92.4333,354.4908,0,U,36834,999,85213,.69976698E-4,.546E-5,0
SHIJIAN-6 04B (SJ-6 04B),2010-051B,2026-05-13T23:39:10.764864,14.99259115,.0012516,97.8731,139.0483,62.5313,297.7181,0,U,37180,999,85055,-.21786836E-4,-.328E-5,0
FENGYUN 3B,2010-059A,2026-05-14T00:07:46.096896,14.14831178,.00209697,98.9651,179.8701,284.5906,137.8469,0,U,37214,999,80259,-.18828924E-3,-.409E-5,0
COSMO-SKYMED 4,2010-060A,2026-05-13T22:42:03.999168,14.82157436,.00014121,97.8889,318.0425,83.0196,277.1178,0,U,37216,999,83949,.13249265E-3,.1003E-4,0
O/OREOS (USA 219),2010-062C,2026-05-13T12:05:42.991584,14.93593949,.00130251,71.9682,158.8926,138.7463,221.4694,0,U,37224,999,11146,.11558468E-3,.1158E-4,0
RESOURCESAT-2,2011-015A,2026-05-13T22:52:57.179712,14.21604452,.00111396,98.7654,201.6287,2.5704,357.5529,0,U,37387,999,78131,.42808902E-4,.5E-6,0
YOUTHSAT,2011-015B,2026-05-13T13:34:53.335776,14.25615075,.00157648,98.3667,109.1859,84.0208,32.0869,0,U,37388,999,78270,.65846091E-4,.115E-5,0
APRIZESAT 6,2011-044F,2026-05-13T06:22:51.447072,14.76866079,.00426756,98.2385,43.0503,195.9977,281.9310,0,U,37793,999,79199,.56099627E-4,.343E-5,0
JUGNU,2011-058B,2026-05-13T05:16:45.048576,14.13766034,.00187492,19.9589,160.8629,50.6973,19.1957,0,U,37839,999,75407,.60056786E-4,.382E-5,0
SRMSAT,2011-058D,2026-05-13T10:31:23.295648,14.11567807,.00116716,19.9724,269.8009,181.4461,226.2347,0,U,37841,999,75290,.54246554E-4,.365E-5,0
